#aV2016  6 25  0  0  0.00000000     288 DD+AD WGS84 FIT  NGA
## 1902 518400.00000000   300.00000000 57564 0.0000000000000
+   31     1  2  3  5  6  7  8  9 10 11 12 13 14 15 16 17 18
+         19 20 21 22 23 24 25 26 27 28 29 30 31 32  0  0  0
+          0  0  0  0  0  0  0  0  0  0  0  0  0  0  0  0  0
+          0  0  0  0  0  0  0  0  0  0  0  0  0  0  0  0  0
+          0  0  0  0  0  0  0  0  0  0  0  0  0  0  0  0  0
++         2  2  2  2  2  2  2  2  2  2  2  2  2  2  2  2  2
++         2  2  2  2  2  2  2  2  2  2  2  2  2  2  0  0  0
++         0  0  0  0  0  0  0  0  0  0  0  0  0  0  0  0  0
++         0  0  0  0  0  0  0  0  0  0  0  0  0  0  0  0  0
++         0  0  0  0  0  0  0  0  0  0  0  0  0  0  0  0  0
%c cc cc ccc ccc cccc cccc cccc cccc ccccc ccccc ccccc ccccc
%c cc cc ccc ccc cccc cccc cccc cccc ccccc ccccc ccccc ccccc
%f  0.0000000  0.000000000  0.00000000000  0.000000000000000
%f  0.0000000  0.000000000  0.00000000000  0.000000000000000
%i    0    0    0    0      0      0      0      0         0
%i    0    0    0    0      0      0      0      0         0
/*      NGA, ST. LOUIS,MO.                                  
/*   EPHEMERIS COMPUTED FROM 2 DAYS OF DATA                 
/*   EPOCHA v2.4 SMOOTHER                                   
/*   G1762  SATAF SATAPC                                    
*  2016  6 25 22  5  0.00000000
P  1  20819.752033  11444.856002  12034.078578     24.840793                    
V  1   8389.415854  12985.776546 -26443.238655      0.012642                    
P  2 -13250.585143 -22114.979047   7622.358409    582.699241                    
V  2   8182.048378   4674.358487  29134.852015     -0.036653                    
P  3  15623.378091    896.037146  21467.666875    -70.460222                    
V  3  -8442.984780  25911.578293   5063.851141     -0.032389                    
P  5  -6508.486654 -19318.765193 -16983.712706   -110.070577                    
V  5   8791.686549 -19805.849886  19427.599024      0.028619                    
P  6   -399.048656 -19481.997548  18059.085492    209.911010                    
V  6  16205.184871  16247.493991  17900.546713      0.053579                    
P  7  15719.114150  -3774.151450 -21005.881397    446.117751                    
V  7  16766.248002  21046.694038   8302.521519     -0.024730                    
P  8  19958.686048   7259.603122 -15927.751286    -40.399009                    
V  8 -19522.503417   5831.217421 -21699.037137     -0.014182                    
P  9  25389.204294  -7261.111666  -2944.811133    155.605059                    
V  9   4240.692875   2170.728941  31317.537316      0.072789                    
P 10 -10663.094824  24049.155794  -3352.526676    -53.117233                    
V 10  -1364.535963  -4998.302842 -31384.438574     -0.078532                    
P 11  24176.917200  10682.033679   2192.679102   -653.442605                    
V 11    848.356653   5842.672514 -30099.430243     -0.020269                    
P 12 -13691.116920  -4827.945520  22102.288773    383.718338                    
V 12  10484.778791 -26304.558914    947.667779      0.010155                    
P 13 -12050.294784 -12777.830202 -20021.487089    -27.127788                    
V 13  24987.049675  -3011.449056 -13281.575327     -0.024885                    
P 14  -7722.702082  15261.495842  20545.292186    -21.295609                    
V 14 -25471.064516   1959.609262 -11332.575274     -0.020144                    
P 15 -22125.558683  -5174.702093 -14154.283878   -316.811253                    
V 15  16504.630605  -6903.143894 -23134.961625     -0.015733                    
P 16   3847.068727  19759.699813 -17225.365573     -8.558658                    
V 16  -9797.891947  19468.808818  20642.691232      0.023769                    
P 17  14270.538011 -14127.595080  17618.744364   -203.996301                    
V 17  21730.717135  -1768.949066 -19563.415819      0.000429                    
P 18 -15498.370419  16396.571990 -13268.583480    530.247542                    
V 18   2017.501565 -18148.106557 -24061.490504      0.038819                    
P 19   5133.577437 -14946.649597  21156.919790   -525.317263                    
V 19  27257.307778  -2201.379604  -7723.834160      0.001984                    
P 20 -15394.006464  -4518.544550 -21316.731339    420.606817                    
V 20   6648.744864 -26028.115069    761.062076      0.022566                    
P 21 -13833.249537   7432.535191 -20693.395916   -526.809198                    
V 21 -18672.565180 -21008.588219   4534.739864     -0.009933                    
P 22  13236.209540  10430.631196  20753.298341    311.551800                    
V 22  -8538.977259  24556.141137  -7098.825826     -0.088582                    
P 23  26049.263122   -377.917690   6466.455981   -179.634256                    
V 23  -7192.591839   4214.036958  29710.643191     -0.015534                    
P 24 -21059.038568 -13773.508325   8744.220859    -19.157283                    
V 24  -5471.866990 -10094.252034 -28691.817217     -0.006189                    
P 25 -16398.069470   8935.626684  18682.397043   -196.967768                    
V 25   6599.295813 -23125.065402  16922.704698     -0.070120                    
P 26  -2452.663574  25151.787035  -8105.242251   -406.255285                    
V 26  -5806.004416   8913.849157  29486.083367     -0.107578                    
P 27   9229.681981  12998.780512 -21308.935773    107.616974                    
V 27 -26287.754127   5754.495161  -7721.893525      0.042795                    
P 28  12693.267503 -22852.163482  -3930.287272    532.757752                    
V 28   -463.571927   6090.198429 -31892.202227      0.027294                    
P 29 -26290.686180   3601.619646     10.661696    656.324066                    
V 29   -306.040279  -2296.707463  32155.912688     -0.004545                    
P 30   8987.912383 -13166.073821 -21235.039317    135.601052                    
V 30  16823.702234  21125.598849  -6084.163407      0.026063                    
P 31   2745.349701  20834.669748  16121.303251    262.062257                    
V 31 -14340.362069 -14637.901371  21847.266910     -0.019407                    
P 32 -12625.153288  15214.729804  17739.068286    -32.847675                    
V 32 -22400.330837   2795.547088 -18369.215631     -0.088404                    
EOF
